NORAD_CAT_ID,OBJECT_NAME,OBJECT_TYPE,EPOCH,MEAN_MOTION,ECCENTRICITY,INCLINATION,RA_OF_ASC_NODE,ARG_OF_PERICENTER,MEAN_ANOMALY,BSTAR,MEAN_MOTION_DOT,MEAN_MOTION_DDOT,TLE_LINE0,TLE_LINE1,TLE_LINE2,SEMIMAJOR_AXIS,PERIOD,APOGEE,PERIGEE,DECAYED
51727.0,STARLINK-3532,PAYLOAD,2022-04-08 14:00:03,15.35302587,0.0001754,53.2176,275.2794,44.0724,156.8285,-0.022312,-0.00716688,0.0,0 STARLINK-3532,1 51727U 22016P   22098.58336806 -.00716688  00000-0 -22312-1 0  9992,2 51727  53.2176 275.2794 0001754  44.0724 156.8285 15.35302587  3683,6838.159000000002,93.793,461.223,458.824,0.0
51727.0,STARLINK-3532,PAYLOAD,2022-04-08 22:00:00,15.34790056,0.0001769,53.2175,273.7217,42.5821,201.2735,-0.022528,-0.00712178,0.0,0 STARLINK-3532,1 51727U 22016P   22098.91667824 -.00712178  00000-0 -22528-1 0  9995,2 51727  53.2175 273.7217 0001769  42.5821 201.2735 15.34790056  8469,6839.681,93.824,462.756,460.336,0.0
51727.0,STARLINK-3532,PAYLOAD,2022-04-09 14:00:01,15.33774259,0.0001601,53.2178,270.6053,42.1469,286.035,-0.023514,-0.00719021,0.0,0 STARLINK-3532,1 51727U 22016P   22099.58334491 -.00719021  00000-0 -23514-1 0  9990,2 51727  53.2178 270.6053 0001601  42.1469 286.0350 15.33774259  3673,6842.701,93.886,465.661,463.47,0.0
51727.0,STARLINK-3532,PAYLOAD,2022-04-09 22:00:00,15.33261723,0.0001616,53.2175,269.0511,38.2102,331.2159,-0.023747,-0.00714754,0.0,0 STARLINK-3532,1 51727U 22016P   22099.91667824 -.00714754  00000-0 -23747-1 0  9992,2 51727  53.2175 269.0511 0001616  38.2102 331.2159 15.33261723  8613,6844.226,93.917,467.197,464.985,0.0
51727.0,STARLINK-3532,PAYLOAD,2022-04-10 14:00:01,15.32244406,0.000178,53.2177,265.9422,35.4897,54.5866,-0.024701,-0.00719545,0.0,0 STARLINK-3532,1 51727U 22016P   22100.58334491 -.00719545  00000-0 -24701-1 0  9993,2 51727  53.2177 265.9422 0001780  35.4897  54.5866 15.32244406  3672,6847.255,93.98,470.338,467.901,0.0
51727.0,STARLINK-3532,PAYLOAD,2022-04-10 20:00:01,15.31861649,0.0001544,53.2176,264.7792,43.7378,345.9498,-0.024985,-0.00719095,0.0,0 STARLINK-3532,1 51727U 22016P   22100.83334491 -.00719095  00000-0 -24985-1 0  9995,2 51727  53.2176 264.7792 0001544  43.7378 345.9498 15.31861649  8757,6848.395,94.003,471.318,469.203,0.0
51727.0,STARLINK-3532,PAYLOAD,2022-04-10 22:00:00,15.31729517,0.0001675,53.2173,264.3913,42.3801,87.103,-0.024784,-0.00711025,0.0,0 STARLINK-3532,1 51727U 22016P   22100.91667824 -.00711025  00000-0 -24784-1 0  9995,2 51727  53.2173 264.3913 0001675  42.3801  87.1030 15.31729517  3687,6848.7890000000025,94.011,471.801,469.507,0.0
51727.0,STARLINK-3532,PAYLOAD,2022-04-11 14:00:01,15.30712545,0.0001806,53.2176,261.2897,43.1875,163.2688,-0.025776,-0.00715905,0.0,0 STARLINK-3532,1 51727U 22016P   22101.58334491 -.00715905  00000-0 -25776-1 0  9993,2 51727  53.2176 261.2897 0001806  43.1875 163.2688 15.30712545  3679,6851.821999999999,94.074,474.925,472.45,0.0
51727.0,STARLINK-3532,PAYLOAD,2022-04-11 20:00:01,15.30329658,0.0001626,53.2175,260.1294,49.9308,94.7579,-0.026066,-0.00715378,0.0,0 STARLINK-3532,1 51727U 22016P   22101.83334491 -.00715378  00000-0 -26066-1 0  9998,2 51727  53.2175 260.1294 0001626  49.9308  94.7579 15.30329658  8910,6852.965,94.097,475.944,473.716,0.0
51727.0,STARLINK-3532,PAYLOAD,2022-04-11 22:00:00,15.30200453,0.0001551,53.2172,259.7422,53.4918,190.5318,-0.026027,-0.00711725,0.0,0 STARLINK-3532,1 51727U 22016P   22101.91667824 -.00711725  00000-0 -26027-1 0  9995,2 51727  53.2172 259.7422 0001551  53.4918 190.5318 15.30200453  3673,6853.351,94.105,476.279,474.153,0.0
51727.0,STARLINK-3532,PAYLOAD,2022-04-12 14:00:01,15.2918346,0.0001674,53.2176,256.648,41.8185,275.5015,-0.027072,-0.00716886,0.0,0 STARLINK-3532,1 51727U 22016P   22102.58334491 -.00716886  00000-0 -27072-1 0  9994,2 51727  53.2176 256.6480 0001674  41.8185 275.5015 15.29183460  3674,6856.389,94.168,479.402,477.106,0.0
51727.0,STARLINK-3532,PAYLOAD,2022-04-12 20:00:01,15.28798573,0.0001579,53.2175,255.4903,54.8221,199.3524,-0.027229,-0.00712833,0.0,0 STARLINK-3532,1 51727U 22016P   22102.83334491 -.00712833  00000-0 -27229-1 0  9994,2 51727  53.2175 255.4903 0001579  54.8221 199.3524 15.28798573  9062,6857.54,94.192,480.487,478.322,0.0
51727.0,STARLINK-3532,PAYLOAD,2022-04-12 22:00:00,15.28672598,0.0001406999999999,53.2172,255.1041,49.99800000000001,303.0507,-0.027413,-0.00722948,0.0,0 STARLINK-3532,1 51727U 22016P   22102.91667824 -.00722948  00000-0 -27413-1 0  9995,2 51727  53.2172 255.1041 0001407  49.9980 303.0507 15.28672598  3658,6857.916,94.199,480.746,478.817,0.0
51727.0,STARLINK-3532,PAYLOAD,2022-04-13 14:00:03,15.27653982,0.0001706999999999,53.2175,252.0172,37.9442,24.8522,-0.028424,-0.00726311,0.0,0 STARLINK-3532,1 51727U 22016P   22103.58336806 -.00726311  00000-0 -28424-1 0  9993,2 51727  53.2175 252.0172 0001707  37.9442  24.8522 15.27653982  3688,6860.965,94.262,484.001,481.658,0.0
51727.0,STARLINK-3532,PAYLOAD,2022-04-13 22:00:00,15.27142294,0.0001468,53.2171,250.4768,49.4771,47.0826,-0.02871,-0.00722468,0.0,0 STARLINK-3532,1 51727U 22016P   22103.91667824 -.00722468  00000-0 -28710-1 0  9994,2 51727  53.2171 250.4768 0001468  49.4771  47.0826 15.27142294  9234,6862.496999999999,94.294,485.369,483.355,0.0
51727.0,STARLINK-3532,PAYLOAD,2022-04-14 14:00:01,15.26122026,0.0001836,53.2174,247.3972,41.6465,120.8574,-0.029633,-0.00722906,0.0,0 STARLINK-3532,1 51727U 22016P   22104.58334491 -.00722906  00000-0 -29633-1 0  9991,2 51727  53.2174 247.3972 0001836  41.6465 120.8574 15.26122026  3663,6865.555,94.357,488.681,486.16,0.0
51727.0,STARLINK-3532,PAYLOAD,2022-04-14 22:00:00,15.2561312,0.0001639,53.2171,245.8601,50.7695,143.7859,-0.030146,-0.00724059,0.0,0 STARLINK-3532,1 51727U 22016P   22104.91667824 -.00724059  00000-0 -30146-1 0  9999,2 51727  53.2171 245.8601 0001639  50.7695 143.7859 15.25613120  9383,6867.081999999999,94.388,490.072,487.821,0.0
51727.0,STARLINK-3532,PAYLOAD,2022-04-15 14:00:01,15.24591481,0.0001751,53.2174,242.788,45.4712,211.3516,-0.030965,-0.00721364,0.0,0 STARLINK-3532,1 51727U 22016P   22105.58334491 -.00721364  00000-0 -30965-1 0  9999,2 51727  53.2174 242.7880 0001751  45.4712 211.3516 15.24591481  3657,6870.149,94.452,493.217,490.811,0.0
51727.0,STARLINK-3532,PAYLOAD,2022-04-15 22:00:00,15.24084886,0.0001409,53.217,241.2542,58.558,228.4774,-0.031702,-0.00726943,0.0,0 STARLINK-3532,1 51727U 22016P   22105.91667824 -.00726943  00000-0 -31702-1 0  9993,2 51727  53.2170 241.2542 0001409  58.5580 228.4774 15.24084886  3639,6871.672,94.483,494.505,492.569,0.0
51727.0,STARLINK-3532,PAYLOAD,2022-04-16 04:00:00,15.23699257,0.000162,53.2173,240.103,50.3178,168.97799999999995,-0.031805,-0.00721353,0.0,0 STARLINK-3532,1 51727U 22016P   22106.16667824 -.00721353  00000-0 -31805-1 0  9995,2 51727  53.2173 240.1030 0001620  50.3178 168.9780 15.23699257  9577,6872.831,94.507,495.809,493.583,0.0
51727.0,STARLINK-3532,PAYLOAD,2022-04-16 14:00:01,15.230630800000002,0.0001699,53.2174,238.1895,40.4279,305.1982,-0.03253,-0.00723753,0.0,0 STARLINK-3532,1 51727U 22016P   22106.58334491 -.00723753  00000-0 -32530-1 0  9994,2 51727  53.2174 238.1895 0001699  40.4279 305.1982 15.23063080  3653,6874.745,94.546,497.778,495.442,0.0
51727.0,STARLINK-3532,PAYLOAD,2022-04-16 22:00:01,15.22554323,0.0001383,53.2171,236.6591,52.4761,321.5884,-0.033117,-0.00725574,0.0,0 STARLINK-3532,1 51727U 22016P   22106.91668981 -.00725574  00000-0 -33117-1 0  9990,2 51727  53.2171 236.6591 0001383  52.4761 321.5884 15.22554323  3641,6876.276,94.578,499.092,497.19,0.0
51727.0,STARLINK-3532,PAYLOAD,2022-04-17 06:00:00,15.22041225,0.0001486999999999,53.2173,235.1282,46.0188,355.7476,-0.033401,-0.00721073,0.0,0 STARLINK-3532,1 51727U 22016P   22107.25001157 -.00721073  00000-0 -33401-1 0  9990,2 51727  53.2173 235.1282 0001487  46.0188 355.7476 15.22041225  9746,6877.821,94.61,500.709,498.664,0.0
51727.0,STARLINK-3532,PAYLOAD,2022-04-17 14:00:01,15.21533664,0.00018,53.2174,233.6018,37.4336,31.481,-0.034094,-0.00724835,0.0,0 STARLINK-3532,1 51727U 22016P   22107.58334491 -.00724835  00000-0 -34094-1 0  9994,2 51727  53.2174 233.6018 0001800  37.4336  31.4810 15.21533664  3662,6879.351,94.641,502.454,499.978,0.0
51727.0,STARLINK-3532,PAYLOAD,2022-04-17 22:00:00,15.21022774,0.0001474,53.2171,232.0748,52.2263,43.2259,-0.034502,-0.00722656,0.0,0 STARLINK-3532,1 51727U 22016P   22107.91667824 -.00722656  00000-0 -34502-1 0  9993,2 51727  53.2171 232.0748 0001474  52.2263  43.2259 15.21022774  3655,6880.891,94.673,503.771,501.742,0.0
51727.0,STARLINK-3532,PAYLOAD,2022-04-18 08:00:01,15.20385829,0.0001721999999999,53.2175,230.1665,49.3177,168.4449,-0.035173,-0.00723047,0.0,0 STARLINK-3532,1 51727U 22016P   22108.33334491 -.00723047  00000-0 -35173-1 0  9991,2 51727  53.2175 230.1665 0001722  49.3177 168.4449 15.20385829  9900,6882.813,94.713,505.86300000000006,503.49300000000005,0.0
51727.0,STARLINK-3532,PAYLOAD,2022-04-18 14:00:01,15.20002562,0.0001847,53.2173,229.0247,42.6749,104.0139,-0.035572,-0.00723094,0.0,0 STARLINK-3532,1 51727U 22016P   22108.58334491 -.00723094  00000-0 -35572-1 0  9993,2 51727  53.2173 229.0247 0001847  42.6749 104.0139 15.20002562  3715,6883.97,94.737,507.106,504.56300000000016,0.0
51727.0,STARLINK-3532,PAYLOAD,2022-04-18 22:00:00,15.19492831,0.0001638,53.2172,227.5012,50.5984,120.7893,-0.036091,-0.00722789,0.0,0 STARLINK-3532,1 51727U 22016P   22108.91667824 -.00722789  00000-0 -36091-1 0  9996,2 51727  53.2172 227.5012 0001638  50.5984 120.7893 15.19492831  3659,6885.509,94.768,508.502,506.246,0.0
51727.0,STARLINK-3532,PAYLOAD,2022-04-19 14:00:01,15.18471784,0.0001983,53.2174,224.4584,39.5188,179.4289,-0.037111,-0.00721583,0.0,0 STARLINK-3532,1 51727U 22016P   22109.58334491 -.00721583  00000-0 -37111-1 0  9996,2 51727  53.2174 224.4584 0001983  39.5188 179.4289 15.18471784 10096,6888.596,94.832,511.827,509.095,0.0
